0 WESTFORD NEEDLES
1 18962U 63014DN  13272.23400404  .00000904  00000-0  32603+0 0  6197
2 18962 087.1781 355.3429 0607945 317.7915 038.4417 08.72359905821393
0 WESTFORD NEEDLES
1 18962U 63014DN  13272.24148791  .00001944  00000-0  70188+0 0  6179
2 18962 087.1912 355.3611 0607293 317.9979 061.7906 08.72366050821391
0 WESTFORD NEEDLES
1 18962U 63014DN  13274.19039266  .00001881  00000-0  67915+0 0  6186
2 18962 087.1920 355.1623 0607114 315.9610 062.3670 08.72367892821562
0 WESTFORD NEEDLES
1 18962U 63014DN  13277.17264361  .00002005  00000-0  72231+0 0  6202
2 18962 087.1900 354.8531 0610215 312.6551 068.4875 08.72380380821828
